#cP2022  4 16  0  0  0.00000000      96 ORBIT ITRF  BHN ESOC                    
## 2205 518400.00000000   900.00000000 59685 0.0000000000000                    
+   52   G22G13G28G21G07G05G20G31G17G15G16G29G12G19G02G25G01                    
+        G30G24G27G06G09G03G32G26G08G10G04G18G23G14G11R09R11                    
+        R20R19R13R01R22R08R03R07R02R17R14R18R21R05R15R12R04                    
+        R24  0  0  0  0  0  0  0  0  0  0  0  0  0  0  0  0                    
+          0  0  0  0  0  0  0  0  0  0  0  0  0  0  0  0  0                    
++         5  5  6  5  5  5  5  6  5  5  5  5  5  5  5  6  5                    
++         6  5  5  5  5  5  5  5  5  5  5  5  5  5  5  6  6                    
++         8  7  6  7  7  6  5  6  6  7  6  5  5  6  5  6  6                    
++         6  0  0  0  0  0  0  0  0  0  0  0  0  0  0  0  0                    
++         0  0  0  0  0  0  0  0  0  0  0  0  0  0  0  0  0                    
%c M  cc GPS ccc cccc cccc cccc cccc ccccc ccccc ccccc ccccc                    
%c cc cc ccc ccc cccc cccc cccc cccc ccccc ccccc ccccc ccccc                    
%f  0.0000000  0.000000000  0.00000000000  0.000000000000000                    
%f  0.0000000  0.000000000  0.00000000000  0.000000000000000                    
%i    0    0    0    0      0      0      0      0         0                    
%i    0    0    0    0      0      0      0      0         0                    
/* CCCCCCCCCCCCCCCCCCCCCCCCCCCCCCCCCCCCCCCCCCCCCCCCCCCCCCCCC                    
/* CCCCCCCCCCCCCCCCCCCCCCCCCCCCCCCCCCCCCCCCCCCCCCCCCCCCCCCCC                    
/* CCCCCCCCCCCCCCCCCCCCCCCCCCCCCCCCCCCCCCCCCCCCCCCCCCCCCCCCC                    
/* PCV:IGS14_2196 OL/AL:EOT11A   NONE     YN ORB:CoN CLK:CoN                    
*  2022  4 16 19 30  0.00000000                                                 
PG22  10002.644283  16766.381120  18501.336231    244.409388                    
PG13 -21942.984206 -13469.927681  -7023.082879    295.334813                    
PG28   2872.272692 -19504.612686  18420.667704    370.740925                    
PG21  17613.428313  10128.118635  18097.206685    160.496019                    
PG07   8048.622787 -17365.591895 -17805.671647    320.366952                    
PG05 -15533.497650  -4703.960949 -21212.843360    -78.534983                    
PG20  -8756.665116 -14049.012985 -20806.534954    515.797352                    
PG31   6458.233431  25478.042845    914.719948   -173.695190                    
PG17    899.430072 -15260.528221  22146.745404    601.193669                    
PG15 -26591.500470  -2735.798148    -73.740795    -68.428595                    
PG16  11705.947119   9807.612103 -22026.183171   -492.283232                    
PG29 -19185.543221   6192.061457 -17376.805334   -503.767698                    
PG12 -20948.676479   5360.846676  15068.768702   -201.357302                    
PG19  -7178.265084 -16365.685302  19454.065937    145.242206                    
PG02 -14682.106048 -19620.514098  -9400.228230   -653.132475                    
PG25 -19648.700462  17102.685584   4070.251112    312.822986                    
PG01  14790.195556   -613.500550  21792.027321    383.547973                    
PG30   2077.262857 -23652.851358 -11568.105479   -524.051284                    
PG24 -17062.026081  -3243.097571  19899.537356    255.641119                    
PG27  20742.680445  12706.427565 -11336.460005    184.559174                    
PG06  -5106.464351 -25748.866724   3813.703427    269.124917                    
PG09  17819.648863  -8990.388073 -17602.547143   -343.279592                    
PG03  21020.853627  -9926.191938  12635.398211   -209.242928                    
PG32   2598.057856  15910.214178  21278.910952   -106.829681                    
PG26   2578.651521  18493.361986 -18861.044313    199.093314                    
PG08  26158.027372   5625.738648   -206.635663    -64.210716                    
PG10  -8440.819619  21727.173517  12602.031990   -381.532588                    
PG04  24809.545691   -288.437420  -9585.561202   -175.369789                    
PG18  -8235.966166  17175.176601 -18470.086660    193.864753                    
PG23 -16355.253415  20751.208559   2112.587620    -15.424134                    
PG14  10197.835696 -21617.243160  11489.467811   -102.936296                    
PG11 -12943.722769 -20393.366938 -11061.302590    -39.014376                    
PR09  10009.908306 -22331.909268  -7047.392303     50.122829                    
PR11  -7253.274739 -11574.986166  21547.036590     41.017527                    
PR20   4947.526616  -9881.622875  22989.370402    -68.764124                    
PR19  16905.111738   7858.762146  17409.118081   -185.623399                    
PR13 -10427.640598  21756.730611   8260.783065    -20.987033                    
PR01 -24880.852212   4814.571555  -2970.706559      7.832479                    
PR22 -18116.673489 -17331.522700  -4409.894113   -177.338767                    
PR08 -18286.458386  -4221.763263 -17200.989696    -64.659985                    
PR03   1433.571252  10905.640212  23062.837053     55.029091                    
PR07  -2116.047231 -10717.941877 -23005.876206     33.930414                    
PR02 -16491.406131  11291.664725  15859.359722    515.714442                    
PR17   9967.952552  19553.236751 -12967.398478    518.088076                    
PR14  -1742.850072  23279.164406 -10292.345414     76.581214                    
PR18  18103.414114  17673.213568   3501.549349    113.772852                    
PR21 -10943.636959 -19859.394309  11699.663821   -293.865137                    
PR05  25029.730050  -4481.304014   2180.158025     91.255753                    
PR15   7581.451061  10919.651738 -21754.787369     96.768923                    
PR12 -12714.471515   8046.125522  20613.611534     17.949967                    
PR04  18147.515155   4309.804399  17436.998118    137.023634                    
PR24  -4463.295483  10870.387104 -22626.095312     89.370490                    
EOF                                                                             
